OBJECT_NAME,OBJECT_ID,EPOCH,MEAN_MOTION,ECCENTRICITY,INCLINATION,RA_OF_ASC_NODE,ARG_OF_PERICENTER,MEAN_ANOMALY,EPHEMERIS_TYPE,CLASSIFICATION_TYPE,NORAD_CAT_ID,ELEMENT_SET_NO,REV_AT_EPOCH,BSTAR,MEAN_MOTION_DOT,MEAN_MOTION_DDOT
SIRION PATHFINDER-2,2018-099B,2026-07-02T10:37:46.392384,15.14680073,.0007319,97.4240,232.1382,240.1372,119.9133,0,U,43759,999,41493,.27406E-3,.5009E-4,0
CORVUS BC4,2018-099K,2026-07-01T01:56:38.588352,15.12603535,.00069308,97.4054,224.6547,321.1885,38.8848,0,U,43767,999,41450,.29796216E-3,.5142E-4,0
M2 PATHFINDER,2020-037E,2026-07-02T19:22:32.153376,15.04748560,.00128879,97.8148,15.2141,99.9465,260.3216,0,U,45727,999,32784,.24523609E-3,.3398E-4,0
NETSAT-4,2020-068U,2026-07-02T14:42:43.053984,15.44380953,.00034472,97.8600,193.0981,250.0471,110.0405,0,U,46504,999,31815,.39116177E-3,.17984E-3,0
NETSAT-3,2020-068V,2026-07-02T18:15:23.558112,15.43224400,.00028922,97.8650,191.4550,277.6321,82.4597,0,U,46505,999,31808,.45630798E-3,.20196E-3,0
NETSAT-1,2020-068W,2026-07-02T06:15:52.813152,15.34987582,.0003139,97.8745,185.0671,337.8079,22.3027,0,U,46506,999,31761,.40391E-3,.13631E-3,0
NETSAT-2,2020-068X,2026-07-02T12:02:22.294752,15.46666067,.0001408,97.8610,192.9295,305.0329,55.0787,0,U,46507,999,31810,.48478E-3,.24138E-3,0
GREENCUBE (IO-117),2022-080E,2026-06-30T17:23:31.202880,6.42583253,.00089588,70.1437,293.5372,286.6703,73.2973,0,U,53109,999,9293,0,-.3E-7,0
SITRO-AIS 5 (KATYS),2023-091L,2026-07-02T20:03:16.851744,15.29821063,.00119286,97.5050,247.8866,54.3065,305.9283,0,U,57176,999,16673,.49911607E-3,.14379E-3,0
SITRO-AIS 6 (CHIRKIN),2023-091AC,2026-07-02T20:25:21.135648,15.26237516,.00123847,97.5058,246.9376,57.5970,302.6465,0,U,57192,999,16667,.47823863E-3,.12346E-3,0
SITRO-AIS 8 (ANOKHIN),2023-091AD,2026-07-02T19:47:58.087968,15.32566965,.00107785,97.5047,249.5289,50.4495,309.7697,0,U,57193,999,16684,.52919848E-3,.16609E-3,0
SITRO-AIS 7 (FARTUSHNIY),2023-091AE,2026-07-02T19:00:06.819840,15.25915941,.0012303,97.5053,246.6948,58.8011,301.4432,0,U,57194,999,16665,.43051071E-3,.10997E-3,0
SITRO-AIS 10 (BURDAEV),2023-091AK,2026-07-02T18:57:33.259392,15.39206110,.00060782,97.5073,254.7105,30.2089,329.9505,0,U,57199,999,16716,.57256377E-3,.22223E-3,0
SITRO-AIS 9 (SHCHUKIN),2023-091AM,2026-07-02T19:42:49.328928,15.38704624,.00063451,97.5070,254.4603,30.0764,330.0844,0,U,57201,999,16715,.63802475E-3,.24379E-3,0
SITRO-AIS 12 (SMIRENNIY),2023-091AQ,2026-07-02T19:25:01.900128,15.38999707,.00058285,97.5084,254.9247,24.1871,335.9647,0,U,57204,999,16717,.65436964E-3,.25248E-3,0
SITRO-AIS 11 (SHEFFER),2023-091AU,2026-07-02T19:38:04.527744,15.39432700,.00057617,97.5083,255.1904,23.9453,336.2059,0,U,57208,999,16719,.65568927E-3,.25661E-3,0
SITRO-AIS 25,2024-039R,2026-07-03T12:32:31.310304,14.93593001,.01422475,95.3898,246.3181,270.8847,87.6083,0,U,59066,999,12716,.28511385E-3,.3635E-4,0
SITRO-AIS 26,2024-039S,2026-07-03T12:37:43.299840,14.93389593,.01425799,95.3899,246.2149,271.4925,86.9972,0,U,59067,999,12715,.32506513E-3,.413E-4,0
SITRO-AIS 27,2024-039T,2026-07-03T16:37:38.446176,14.93807560,.01417809,95.3899,246.6090,269.4482,89.0497,0,U,59068,999,12720,.22262035E-3,.2843E-4,0
SITRO-AIS 28,2024-039U,2026-07-03T14:28:10.057152,14.93846537,.01415345,95.3903,246.5954,269.6178,88.8829,0,U,59071,999,12719,.2940357E-3,.3768E-4,0
GRBBETA,2024-128C,2026-07-02T16:24:06.013152,15.06735008,.0038648,61.9887,161.8933,137.9861,222.4208,0,U,60237,999,10860,.29758537E-3,.4303E-4,0
OOV-CUBE (TUBSAT-30),2024-128F,2026-07-02T16:36:17.261280,15.02831807,.00427186,61.9926,171.5059,137.2336,223.2093,0,U,60240,999,10844,.17577932E-3,.2197E-4,0
ROBUSTA-3A (MEDITERRANEE),2024-128J,2026-07-02T21:03:04.018176,15.11839773,.0039598,61.9855,152.7519,131.1452,229.3072,0,U,60243,999,10879,.51087491E-3,.8728E-4,0
LASARSAT,2024-247Q,2026-07-02T16:03:49.146048,15.47293079,.00065854,44.9722,175.1548,71.8885,288.2722,0,U,62391,999,8571,.63606968E-3,.32981E-3,0
CROCUBE,2024-247T,2026-07-02T06:15:31.098240,15.49290769,.0006479,44.9691,174.5342,75.1846,284.9762,0,U,62394,999,8568,.78103E-3,.43599E-3,0
FORESAIL-1 PRIME,2025-276DS,2026-07-02T16:15:08.824608,15.18841293,.0003672,97.4196,256.6654,71.4319,288.7315,0,U,66778,999,3275,.2875553E-3,.5924E-4,0
KNACKSAT-2,1998-067XZ,2026-07-02T06:29:25.454400,15.61304103,.0008371,51.6255,218.5343,281.3126,78.6927,0,U,67683,999,2263,.55339E-3,.47788E-3,0
